{
    "links": {
        "self": "http://www.neowsapp.com/rest/v1/neo/3698500?api_key=iIulBulltgU6a56xZRHN4H3l9WmuAYTsLGpBGhQ2"
    },
    "id": "3698500",
    "neo_reference_id": "3698500",
    "name": "(2014 HB197)",
    "designation": "2014 HB197",
    "nasa_jpl_url": "http://ssd.jpl.nasa.gov/sbdb.cgi?sstr=3698500",
    "absolute_magnitude_h": 27.8,
    "estimated_diameter": {
        "kilometers": {
            "estimated_diameter_min": 0.0073207399,
            "estimated_diameter_max": 0.016369672
        },
        "meters": {
            "estimated_diameter_min": 7.3207398935,
            "estimated_diameter_max": 16.3696720474
        },
        "miles": {
            "estimated_diameter_min": 0.0045488955,
            "estimated_diameter_max": 0.0101716395
        },
        "feet": {
            "estimated_diameter_min": 24.0181762721,
            "estimated_diameter_max": 53.70627484
        }
    },
    "is_potentially_hazardous_asteroid": false,
    "close_approach_data": [
        {
            "close_approach_date": "2014-05-05",
            "close_approach_date_full": "2014-May-05 17:36",
            "epoch_date_close_approach": 1399311360000,
            "relative_velocity": {
                "kilometers_per_second": "8.9406826712",
                "kilometers_per_hour": "32186.4576162325",
                "miles_per_hour": "19999.4130671529"
            },
            "miss_distance": {
                "astronomical": "0.0254607985",
                "lunar": "9.9042506165",
                "kilometers": "3808881.224099195",
                "miles": "2366729.045971091"
            },
            "orbiting_body": "Earth"
        }
    ],
    "orbital_data": {
        "orbit_id": "3",
        "orbit_determination_date": "2017-04-06 08:41:00",
        "first_observation_date": "2014-04-23",
        "last_observation_date": "2014-04-24",
        "data_arc_in_days": 1,
        "observations_used": 18,
        "orbit_uncertainty": "9",
        "minimum_orbit_intersection": ".0249467",
        "jupiter_tisserand_invariant": "5.106",
        "epoch_osculation": "2456771.5",
        "eccentricity": ".2964721260411944",
        "semi_major_axis": "1.245778530078267",
        "inclination": "6.145127366360747",
        "ascending_node_longitude": "213.0249648629964",
        "orbital_period": "507.8783380205207",
        "perihelion_distance": ".8764399206894891",
        "perihelion_argument": "79.28662113396597",
        "aphelion_distance": "1.615117139467045",
        "perihelion_time": "2456837.711738845140",
        "mean_anomaly": "313.0670552377698",
        "mean_motion": ".7088311767796923",
        "equinox": "J2000",
        "orbit_class": {
            "orbit_class_type": "APO",
            "orbit_class_description": "Near-Earth asteroid orbits which cross the Earth’s orbit similar to that of 1862 Apollo",
            "orbit_class_range": "a (semi-major axis) > 1.0 AU; q (perihelion) < 1.017 AU"
        }
    },
    "is_sentry_object": false
}